{
  "type": "FeatureCollection",
  "features": [
    {
      "type": "Feature",
      "properties": {
        "name": "singapore",
        "osm_id": 17140517
      },
      "geometry": {
        "type": "Polygon",
        "coordinates": [
          [
            [
              103.5655797,
              1.1956685
            ],
            [
              103.5666667,
              1.1955
            ],
            [
              103.6602652,
              1.1873193
            ],
            [
              103.6707222,
              1.1794444
            ],
            [
              103.7406944,
              1.1303611
            ],
            [
              103.805,
              1.1714444
            ],
            [
              103.8261698,
              1.1809141
            ],
            [
              103.8598333,
              1.1959722
            ],
            [
              103.8817371,
              1.2059736
            ],
            [
              103.9170735,
              1.2210595
            ],
            [
              104.025921,
              1.2654096
            ],
            [
              104.1290145,
              1.2726318
            ],
            [
              104.0864243,
              1.346893
            ],
            [
              104.0814389,
              1.3576073
            ],
            [
              104.0838408,
              1.3686427
            ],
            [
              104.0900491,
              1.3845657
            ],
            [
              104.0931803,
              1.394014
            ],
            [
              104.0936715,
              1.39987
            ],
            [
              104.0931817,
              1.4060731
            ],
            [
              104.0915225,
              1.412616
            ],
            [
              104.0902119,
              1.4156502
            ],
            [
              104.0892266,
              1.4177335
            ],
            [
              104.0776756,
              1.4313394
            ],
            [
              104.0713923,
              1.4355694
            ],
            [
              104.0576472,
              1.4402268
            ],
            [
              104.0406831,
              1.4465999
            ],
            [
              104.0221913,
              1.4421652
            ],
            [
              103.9998864,
              1.4276959
            ],
            [
              103.9950354,
              1.4256035
            ],
            [
              103.9929167,
              1.425
            ],
            [
              103.9891136,
              1.4249494
            ],
            [
              103.9861667,
              1.4249167
            ],
            [
              103.9835404,
              1.4247283
            ],
            [
              103.9799167,
              1.4244167
            ],
            [
              103.9724811,
              1.4224807
            ],
            [
              103.9668056,
              1.4221667
            ],
            [
              103.9606667,
              1.4243639
            ],
            [
              103.9575556,
              1.4244167
            ],
            [
              103.9525278,
              1.4253611
            ],
            [
              103.9425278,
              1.4278333
            ],
            [
              103.9376944,
              1.4304722
            ],
            [
              103.9334167,
              1.4304167
            ],
            [
              103.9233333,
              1.42825
            ],
            [
              103.9200435,
              1.4274486
            ],
            [
              103.9168333,
              1.4273531
            ],
            [
              103.91275,
              1.4275278
            ],
            [
              103.9021275,
              1.427825
            ],
            [
              103.8982473,
              1.4284163
            ],
            [
              103.8861389,
              1.4351389
            ],
            [
              103.8778899,
              1.4454088
            ],
            [
              103.8750278,
              1.4489722
            ],
            [
              103.8681667,
              1.4565278
            ],
            [
              103.8649722,
              1.4588611
            ],
            [
              103.8586667,
              1.4629444
            ],
            [
              103.8541927,
              1.4651069
            ],
            [
              103.852,
              1.4661667
            ],
            [
              103.8341667,
              1.473
            ],
            [
              103.8221667,
              1.4766944
            ],
            [
              103.8126238,
              1.4787511
            ],
            [
              103.8033899,
              1.4770312
            ],
            [
              103.7804204,
              1.4597707
            ],
            [
              103.7709394,
              1.4534428
            ],
            [
              103.7693966,
              1.4526701
            ],
            [
              103.7692542,
              1.4526275
            ],
            [
              103.769116,
              1.4525798
            ],
            [
              103.7690553,
              1.452566
            ],
            [
              103.7689724,
              1.4525463
            ],
            [
              103.7688817,
              1.4525248
            ],
            [
              103.7604043,
              1.4488536
            ],
            [
              103.7447632,
              1.4510385
            ],
            [
              103.7428572,
              1.4522383
            ],
            [
              103.7400951,
              1.4538716
            ],
            [
              103.7394872,
              1.4545963
            ],
            [
              103.7389366,
              1.4551668
            ],
            [
              103.7283333,
              1.4599673
            ],
            [
              103.7138107,
              1.4579441
            ],
            [
              103.7034281,
              1.4508851
            ],
            [
              103.6970401,
              1.4440633
            ],
            [
              103.6922336,
              1.4409744
            ],
            [
              103.6820888,
              1.4374002
            ],
            [
              103.6729018,
              1.4283963
            ],
            [
              103.6683501,
              1.4161361
            ],
            [
              103.6632944,
              1.4105795
            ],
            [
              103.6565444,
              1.4005454
            ],
            [
              103.6535,
              1.3912778
            ],
            [
              103.6519637,
              1.387212
            ],
            [
              103.6484186,
              1.3801078
            ],
            [
              103.6462478,
              1.3740192
            ],
            [
              103.6397302,
              1.3631867
            ],
            [
              103.6351992,
              1.3553195
            ],
            [
              103.6332834,
              1.3508234
            ],
            [
              103.6332482,
              1.3507535
            ],
            [
              103.6332025,
              1.3506631
            ],
            [
              103.6331044,
              1.3504685
            ],
            [
              103.6295657,
              1.3442879
            ],
            [
              103.6261594,
              1.3380349
            ],
            [
              103.6164063,
              1.3215682
            ],
            [
              103.6150063,
              1.3179048
            ],
            [
              103.614627,
              1.3167548
            ],
            [
              103.613868,
              1.3145919
            ],
            [
              103.6135445,
              1.3135668
            ],
            [
              103.6122161,
              1.3090707
            ],
            [
              103.6111462,
              1.3059031
            ],
            [
              103.6094227,
              1.3008003
            ],
            [
              103.6067734,
              1.2929567
            ],
            [
              103.6045709,
              1.286436
            ],
            [
              103.6033913,
              1.2830821
            ],
            [
              103.6033258,
              1.2828957
            ],
            [
              103.6016091,
              1.2804432
            ],
            [
              103.585695,
              1.269312
            ],
            [
              103.5774028,
              1.2636372
            ],
            [
              103.5655797,
              1.1956685
            ]
          ]
        ]
      }
    }
  ]
}